{
  "type": "FeatureCollection",
  "features": [
    {
      "type": "Feature",
      "properties": {
        "norad_id": 39160,
        "name": "VNREDSAT 1",
        "group": "resource",
        "lat": -14.751461490202468,
        "lon": 34.31422416990814,
        "alt_km": 682.2419602302652,
        "timestamp": "2025-12-02T13:52:16.932684+00:00",
        "meta_object_name": "VNREDSAT 1",
        "meta_object_id": "2013-021B",
        "meta_epoch": "2025-12-02T07:22:54.904224",
        "meta_mean_motion": 14.64896813,
        "meta_eccentricity": 0.00013799,
        "meta_inclination": 97.9388,
        "meta_ra_of_asc_node": 31.9476,
        "meta_arg_of_pericenter": 84.0057,
        "meta_mean_anomaly": 276.1304,
        "meta_ephemeris_type": 0,
        "meta_classification_type": "U",
        "meta_norad_cat_id": 39160,
        "meta_element_set_no": 999,
        "meta_rev_at_epoch": 67146,
        "meta_bstar": 0.00019092225,
        "meta_mean_motion_dot": 9.75e-06,
        "meta_mean_motion_ddot": 0,
        "tle_line1": "1 39160U 13021B   25336.30757991  .00000975  00000+0  19092-3 0  9990",
        "tle_line2": "2 39160  97.9388  31.9476 0001379  84.0057 276.1304 14.64896813671466"
      },
      "geometry": {
        "type": "Point",
        "coordinates": [
          34.31422416990814,
          -14.751461490202468
        ]
      }
    },
    {
      "type": "Feature",
      "properties": {
        "norad_id": 39227,
        "name": "ARIRANG-5 (KOMPSAT-5)",
        "group": "resource",
        "lat": 56.58055427398512,
        "lon": 149.32731605804847,
        "alt_km": 544.921428119842,
        "timestamp": "2025-12-02T13:52:16.932694+00:00",
        "meta_object_name": "ARIRANG-5 (KOMPSAT-5)",
        "meta_object_id": "2013-042A",
        "meta_epoch": "2025-12-02T07:13:57.216288",
        "meta_mean_motion": 15.04497087,
        "meta_eccentricity": 0.00043685,
        "meta_inclination": 97.6161,
        "meta_ra_of_asc_node": 160.7542,
        "meta_arg_of_pericenter": 83.8728,
        "meta_mean_anomaly": 276.2996,
        "meta_ephemeris_type": 0,
        "meta_classification_type": "U",
        "meta_norad_cat_id": 39227,
        "meta_element_set_no": 999,
        "meta_rev_at_epoch": 67425,
        "meta_bstar": 0.00017847913,
        "meta_mean_motion_dot": 2.438e-05,
        "meta_mean_motion_ddot": 0,
        "tle_line1": "1 39227U 13042A   25336.30135667  .00002438  00000+0  17848-3 0  9990",
        "tle_line2": "2 39227  97.6161 160.7542 0004368  83.8728 276.2996 15.04497087674257"
      },
      "geometry": {
        "type": "Point",
        "coordinates": [
          149.32731605804847,
          56.58055427398512
        ]
      }
    },
    {
      "type": "Feature",
      "properties": {
        "norad_id": 39418,
        "name": "SKYSAT-A",
        "group": "resource",
        "lat": 6.4404299780550955,
        "lon": -152.06220908768702,
        "alt_km": 536.5291300213494,
        "timestamp": "2025-12-02T13:52:16.932704+00:00",
        "meta_object_name": "SKYSAT-A",
        "meta_object_id": "2013-066C",
        "meta_epoch": "2025-12-02T01:58:57.538560",
        "meta_mean_motion": 15.11477798,
        "meta_eccentricity": 0.00205098,
        "meta_inclination": 97.413,
        "meta_ra_of_asc_node": 26.6153,
        "meta_arg_of_pericenter": 275.99,
        "meta_mean_anomaly": 83.8993,
        "meta_ephemeris_type": 0,
        "meta_classification_type": "U",
        "meta_norad_cat_id": 39418,
        "meta_element_set_no": 999,
        "meta_rev_at_epoch": 65869,
        "meta_bstar": 0.00027855021,
        "meta_mean_motion_dot": 4.673e-05,
        "meta_mean_motion_ddot": 0,
        "tle_line1": "1 39418U 13066C   25336.08261040  .00004673  00000+0  27855-3 0  9990",
        "tle_line2": "2 39418  97.4130  26.6153 0020509 275.9900  83.8993 15.11477798658696"
      },
      "geometry": {
        "type": "Point",
        "coordinates": [
          -152.06220908768702,
          6.4404299780550955
        ]
      }
    },
    {
      "type": "Feature",
      "properties": {
        "norad_id": 39419,
        "name": "DUBAISAT-2",
        "group": "resource",
        "lat": 73.31200368265625,
        "lon": -58.55843811176337,
        "alt_km": 532.7371529940228,
        "timestamp": "2025-12-02T13:52:16.932715+00:00",
        "meta_object_name": "DUBAISAT-2",
        "meta_object_id": "2013-066D",
        "meta_epoch": "2025-12-02T07:10:16.623264",
        "meta_mean_motion": 15.08196462,
        "meta_eccentricity": 0.00116277,
        "meta_inclination": 97.4444,
        "meta_ra_of_asc_node": 327.0304,
        "meta_arg_of_pericenter": 0.0092,
        "meta_mean_anomaly": 0.1135,
        "meta_ephemeris_type": 0,
        "meta_classification_type": "U",
        "meta_norad_cat_id": 39419,
        "meta_element_set_no": 999,
        "meta_rev_at_epoch": 65669,
        "meta_bstar": 0.00039117221,
        "meta_mean_motion_dot": 5.999e-05,
        "meta_mean_motion_ddot": 0,
        "tle_line1": "1 39419U 13066D   25336.29880351  .00005999  00000+0  39117-3 0  9992",
        "tle_line2": "2 39419  97.4444 327.0304 0011627   0.0092   0.1135 15.08196462656691"
      },
      "geometry": {
        "type": "Point",
        "coordinates": [
          -58.55843811176337,
          73.31200368265625
        ]
      }
    },
    {
      "type": "Feature",
      "properties": {
        "norad_id": 39574,
        "name": "GPM-CORE",
        "group": "resource",
        "lat": -64.91107140573858,
        "lon": 160.54483555560083,
        "alt_km": 429.98451753015615,
        "timestamp": "2025-12-02T13:52:16.932725+00:00",
        "meta_object_name": "GPM-CORE",
        "meta_object_id": "2014-009C",
        "meta_epoch": "2025-12-02T06:29:08.948544",
        "meta_mean_motion": 15.45126239,
        "meta_eccentricity": 0.0010576,
        "meta_inclination": 64.9753,
        "meta_ra_of_asc_node": 247.7685,
        "meta_arg_of_pericenter": 268.4607,
        "meta_mean_anomaly": 91.5322,
        "meta_ephemeris_type": 0,
        "meta_classification_type": "U",
        "meta_norad_cat_id": 39574,
        "meta_element_set_no": 999,
        "meta_rev_at_epoch": 66739,
        "meta_bstar": 0.00039048629,
        "meta_mean_motion_dot": 0.00018427,
        "meta_mean_motion_ddot": 0,
        "tle_line1": "1 39574U 14009C   25336.27024246  .00018427  00000+0  39049-3 0  9997",
        "tle_line2": "2 39574  64.9753 247.7685 0010576 268.4607  91.5322 15.45126239667396"
      },
      "geometry": {
        "type": "Point",
        "coordinates": [
          160.54483555560083,
          -64.91107140573858
        ]
      }
    },
    {
      "type": "Feature",
      "properties": {
        "norad_id": 39634,
        "name": "SENTINEL-1A",
        "group": "resource",
        "lat": 53.74662506234637,
        "lon": -29.343249789365384,
        "alt_km": 689.9428916979268,
        "timestamp": "2025-12-02T13:52:16.932735+00:00",
        "meta_object_name": "SENTINEL-1A",
        "meta_object_id": "2014-016A",
        "meta_epoch": "2025-12-02T07:02:21.831072",
        "meta_mean_motion": 14.5920074,
        "meta_eccentricity": 0.00012593,
        "meta_inclination": 98.1805,
        "meta_ra_of_asc_node": 341.6889,
        "meta_arg_of_pericenter": 88.991,
        "meta_mean_anomaly": 271.1433,
        "meta_ephemeris_type": 0,
        "meta_classification_type": "U",
        "meta_norad_cat_id": 39634,
        "meta_element_set_no": 999,
        "meta_rev_at_epoch": 62130,
        "meta_bstar": 7.5406922e-05,
        "meta_mean_motion_dot": 3.1e-06,
        "meta_mean_motion_ddot": 0,
        "tle_line1": "1 39634U 14016A   25336.29330823  .00000310  00000+0  75407-4 0  9996",
        "tle_line2": "2 39634  98.1805 341.6889 0001259  88.9910 271.1433 14.59200740621304"
      },
      "geometry": {
        "type": "Point",
        "coordinates": [
          -29.343249789365384,
          53.74662506234637
        ]
      }
    },
    {
      "type": "Feature",
      "properties": {
        "norad_id": 39731,
        "name": "KAZEOSAT 1",
        "group": "resource",
        "lat": -63.54296211815426,
        "lon": 65.86671922474544,
        "alt_km": 759.6235417890957,
        "timestamp": "2025-12-02T13:52:16.932745+00:00",
        "meta_object_name": "KAZEOSAT 1",
        "meta_object_id": "2014-024A",
        "meta_epoch": "2025-12-02T07:30:37.516608",
        "meta_mean_motion": 14.42052352,
        "meta_eccentricity": 0.00010493,
        "meta_inclination": 98.3446,
        "meta_ra_of_asc_node": 48.4538,
        "meta_arg_of_pericenter": 98.5054,
        "meta_mean_anomaly": 261.6255,
        "meta_ephemeris_type": 0,
        "meta_classification_type": "U",
        "meta_norad_cat_id": 39731,
        "meta_element_set_no": 999,
        "meta_rev_at_epoch": 61018,
        "meta_bstar": 0.00010160348,
        "meta_mean_motion_dot": 2.91e-06,
        "meta_mean_motion_ddot": 0,
        "tle_line1": "1 39731U 14024A   25336.31293422  .00000291  00000+0  10160-3 0  9991",
        "tle_line2": "2 39731  98.3446  48.4538 0001049  98.5054 261.6255 14.42052352610187"
      },
      "geometry": {
        "type": "Point",
        "coordinates": [
          65.86671922474544,
          -63.54296211815426
        ]
      }
    }
  ]
}